{"type": "FeatureCollection", "features": [ {"type": "Feature", "properties": {"norad_id": 35885, "name": "COSMOS 2251 DEB", "group": "cosmos-2251-debris", "lat": 34.72185723473837, "lon": -57.66312712378858, "alt_km": 749.0411354802518, "timestamp": "2025-12-14T20:40:32.169744+00:00", "meta": {"OBJECT_NAME": "COSMOS 2251 DEB", "OBJECT_ID": "1993-036ATY", "EPOCH": "2025-12-13T12:46:26.419872", "MEAN_MOTION": 14.37522358, "ECCENTRICITY": 0.00232582, "INCLINATION": 74.0285, "RA_OF_ASC_NODE": 293.3358, "ARG_OF_PERICENTER": 13.5954, "MEAN_ANOMALY": 346.5821, "EPHEMERIS_TYPE": 0, "CLASSIFICATION_TYPE": "U", "NORAD_CAT_ID": 35885, "ELEMENT_SET_NO": 999, "REV_AT_EPOCH": 65027, "BSTAR": 0.00047052352, "MEAN_MOTION_DOT": 1.388e-05, "MEAN_MOTION_DDOT": 0}, "tle": {"line1": "1 35885U 93036ATY 25347.53225023  .00001388  00000+0  47052-3 0  9993", "line2": "2 35885  74.0285 293.3358 0023258  13.5954 346.5821 14.37522358650276"}}, "geometry": {"type": "Point", "coordinates": [-57.66312712378858, 34.72185723473837]}}, {"type": "Feature", "properties": {"norad_id": 35888, "name": "COSMOS 2251 DEB", "group": "cosmos-2251-debris", "lat": 29.4123302375949, "lon": 163.34148676594623, "alt_km": 665.860637214244, "timestamp": "2025-12-14T20:40:32.169754+00:00", "meta": {"OBJECT_NAME": "COSMOS 2251 DEB", "OBJECT_ID": "1993-036AUB", "EPOCH": "2025-12-13T17:39:16.507872", "MEAN_MOTION": 14.58323448, "ECCENTRICITY": 0.00481838, "INCLINATION": 74.0339, "RA_OF_ASC_NODE": 354.7717, "ARG_OF_PERICENTER": 126.5849, "MEAN_ANOMALY": 233.9764, "EPHEMERIS_TYPE": 0, "CLASSIFICATION_TYPE": "U", "NORAD_CAT_ID": 35888, "ELEMENT_SET_NO": 999, "REV_AT_EPOCH": 86288, "BSTAR": 0.00051301683, "MEAN_MOTION_DOT": 2.383e-05, "MEAN_MOTION_DDOT": 0}, "tle": {"line1": "1 35888U 93036AUB 25347.73560773  .00002383  00000+0  51302-3 0  9991", "line2": "2 35888  74.0339 354.7717 0048183 126.5849 233.9764 14.58323448862881"}}, "geometry": {"type": "Point", "coordinates": [163.34148676594623, 29.4123302375949]}}, {"type": "Feature", "properties": {"norad_id": 35890, "name": "COSMOS 2251 DEB", "group": "cosmos-2251-debris", "lat": -4.817660071987337, "lon": 60.035651056115285, "alt_km": 742.416908647343, "timestamp": "2025-12-14T20:40:32.169763+00:00", "meta": {"OBJECT_NAME": "COSMOS 2251 DEB", "OBJECT_ID": "1993-036AUD", "EPOCH": "2025-12-13T10:53:03.299424", "MEAN_MOTION": 14.57503186, "ECCENTRICITY": 0.00538039, "INCLINATION": 73.9362, "RA_OF_ASC_NODE": 241.3354, "ARG_OF_PERICENTER": 5.8757, "MEAN_ANOMALY": 354.3025, "EPHEMERIS_TYPE": 0, "CLASSIFICATION_TYPE": "U", "NORAD_CAT_ID": 35890, "ELEMENT_SET_NO": 999, "REV_AT_EPOCH": 65161, "BSTAR": 0.0029822973, "MEAN_MOTION_DOT": 0.00013825, "MEAN_MOTION_DDOT": 0}, "tle": {"line1": "1 35890U 93036AUD 25347.45351041  .00013825  00000+0  29823-2 0  9994", "line2": "2 35890  73.9362 241.3354 0053803   5.8757 354.3025 14.57503186651611"}}, "geometry": {"type": "Point", "coordinates": [60.035651056115285, -4.817660071987337]}}, {"type": "Feature", "properties": {"norad_id": 35891, "name": "COSMOS 2251 DEB", "group": "cosmos-2251-debris", "lat": -55.60451284546791, "lon": 64.52397269915275, "alt_km": 467.3305034702289, "timestamp": "2025-12-14T20:40:32.169773+00:00", "meta": {"OBJECT_NAME": "COSMOS 2251 DEB", "OBJECT_ID": "1993-036AUE", "EPOCH": "2025-12-12T23:31:35.861952", "MEAN_MOTION": 15.33352498, "ECCENTRICITY": 0.00436495, "INCLINATION": 73.9891, "RA_OF_ASC_NODE": 93.3587, "ARG_OF_PERICENTER": 223.8568, "MEAN_ANOMALY": 135.9169, "EPHEMERIS_TYPE": 0, "CLASSIFICATION_TYPE": "U", "NORAD_CAT_ID": 35891, "ELEMENT_SET_NO": 999, "REV_AT_EPOCH": 67224, "BSTAR": 0.0018817485, "MEAN_MOTION_DOT": 0.00063011, "MEAN_MOTION_DDOT": 0}, "tle": {"line1": "1 35891U 93036AUE 25346.98027618  .00063011  00000+0  18817-2 0  9995", "line2": "2 35891  73.9891  93.3587 0043649 223.8568 135.9169 15.33352498672248"}}, "geometry": {"type": "Point", "coordinates": [64.52397269915275, -55.60451284546791]}}, {"type": "Feature", "properties": {"norad_id": 35895, "name": "COSMOS 2251 DEB", "group": "cosmos-2251-debris", "lat": -30.821914388085816, "lon": -25.83749867986463, "alt_km": 950.1284743096794, "timestamp": "2025-12-14T20:40:32.169783+00:00", "meta": {"OBJECT_NAME": "COSMOS 2251 DEB", "OBJECT_ID": "1993-036AUJ", "EPOCH": "2025-12-11T07:10:31.732032", "MEAN_MOTION": 14.01513994, "ECCENTRICITY": 0.01987879, "INCLINATION": 74.0502, "RA_OF_ASC_NODE": 350.1634, "ARG_OF_PERICENTER": 88.7843, "MEAN_ANOMALY": 273.6056, "EPHEMERIS_TYPE": 0, "CLASSIFICATION_TYPE": "U", "NORAD_CAT_ID": 35895, "ELEMENT_SET_NO": 999, "REV_AT_EPOCH": 58992, "BSTAR": 0.0020881347, "MEAN_MOTION_DOT": 3.73e-05, "MEAN_MOTION_DDOT": 0}, "tle": {"line1": "1 35895U 93036AUJ 25345.29897838  .00003730  00000+0  20881-2 0  9997", "line2": "2 35895  74.0502 350.1634 0198787  88.7843 273.6056 14.01513994589929"}}, "geometry": {"type": "Point", "coordinates": [-25.83749867986463, -30.821914388085816]}}, {"type": "Feature", "properties": {"norad_id": 35898, "name": "COSMOS 2251 DEB", "group": "cosmos-2251-debris", "lat": -6.559864241652586, "lon": 115.06044788746621, "alt_km": 605.5994899542156, "timestamp": "2025-12-14T20:40:32.169793+00:00", "meta": {"OBJECT_NAME": "COSMOS 2251 DEB", "OBJECT_ID": "1993-036AUM", "EPOCH": "2025-12-11T03:33:58.696128", "MEAN_MOTION": 14.94658859, "ECCENTRICITY": 0.00792199, "INCLINATION": 73.9916, "RA_OF_ASC_NODE": 300.6702, "ARG_OF_PERICENTER": 84.5945, "MEAN_ANOMALY": 290.8859, "EPHEMERIS_TYPE": 0, "CLASSIFICATION_TYPE": "U", "NORAD_CAT_ID": 35898, "ELEMENT_SET_NO": 999, "REV_AT_EPOCH": 66786, "BSTAR": 0.001087469, "MEAN_MOTION_DOT": 0.00012532, "MEAN_MOTION_DDOT": 0}, "tle": {"line1": "1 35898U 93036AUM 25345.14859602  .00012532  00000+0  10875-2 0  9993", "line2": "2 35898  73.9916 300.6702 0079219  84.5945 290.8859 14.94658859667864"}}, "geometry": {"type": "Point", "coordinates": [115.06044788746621, -6.559864241652586]}}, {"type": "Feature", "properties": {"norad_id": 35901, "name": "COSMOS 2251 DEB", "group": "cosmos-2251-debris", "lat": -68.24955907168867, "lon": -27.433619152718464, "alt_km": 548.6202691890203, "timestamp": "2025-12-14T20:40:32.169803+00:00", "meta": {"OBJECT_NAME": "COSMOS 2251 DEB", "OBJECT_ID": "1993-036AUQ", "EPOCH": "2025-12-07T10:36:21.692736", "MEAN_MOTION": 15.06319673, "ECCENTRICITY": 0.00066034, "INCLINATION": 74.0121, "RA_OF_ASC_NODE": 33.7639, "ARG_OF_PERICENTER": 0.5644, "MEAN_ANOMALY": 13.1472, "EPHEMERIS_TYPE": 0, "CLASSIFICATION_TYPE": "U", "NORAD_CAT_ID": 35901, "ELEMENT_SET_NO": 999, "REV_AT_EPOCH": 86047, "BSTAR": 0.0047775116, "MEAN_MOTION_DOT": 0.0007096, "MEAN_MOTION_DDOT": 0}, "tle": {"line1": "1 35901U 93036AUQ 25341.44191774  .00070960  00000+0  47775-2 0  9994", "line2": "2 35901  74.0121  33.7639 0006603   0.5644  13.1472 15.06319673860474"}}, "geometry": {"type": "Point", "coordinates": [-27.433619152718464, -68.24955907168867]}}, {"type": "Feature", "properties": {"norad_id": 35902, "name": "COSMOS 2251 DEB", "group": "cosmos-2251-debris", "lat": -40.397232252032396, "lon": -143.4167549205427, "alt_km": 742.9303908890815, "timestamp": "2025-12-14T20:40:32.169813+00:00", "meta": {"OBJECT_NAME": "COSMOS 2251 DEB", "OBJECT_ID": "1993-036AUR", "EPOCH": "2025-12-12T01:33:56.017152", "MEAN_MOTION": 14.26898947, "ECCENTRICITY": 0.01020569, "INCLINATION": 73.9828, "RA_OF_ASC_NODE": 235.8058, "ARG_OF_PERICENTER": 350.6999, "MEAN_ANOMALY": 9.2255, "EPHEMERIS_TYPE": 0, "CLASSIFICATION_TYPE": "U", "NORAD_CAT_ID": 35902, "ELEMENT_SET_NO": 999, "REV_AT_EPOCH": 61120, "BSTAR": 0.0016300387, "MEAN_MOTION_DOT": 4.159e-05, "MEAN_MOTION_DDOT": 0}, "tle": {"line1": "1 35902U 93036AUR 25346.06523168  .00004159  00000+0  16300-2 0  9991", "line2": "2 35902  73.9828 235.8058 0102056 350.6999   9.2255 14.26898947611205"}}, "geometry": {"type": "Point", "coordinates": [-143.4167549205427, -40.397232252032396]}}, {"type": "Feature", "properties": {"norad_id": 35905, "name": "COSMOS 2251 DEB", "group": "cosmos-2251-debris", "lat": 70.36415981733741, "lon": -26.86658447239172, "alt_km": 625.5431944277798, "timestamp": "2025-12-14T20:40:32.169823+00:00", "meta": {"OBJECT_NAME": "COSMOS 2251 DEB", "OBJECT_ID": "1993-036AUU", "EPOCH": "2025-12-12T21:46:16.127040", "MEAN_MOTION": 14.99027682, "ECCENTRICITY": 0.00908923, "INCLINATION": 74.032, "RA_OF_ASC_NODE": 210.4725, "ARG_OF_PERICENTER": 290.4597, "MEAN_ANOMALY": 68.6848, "EPHEMERIS_TYPE": 0, "CLASSIFICATION_TYPE": "U", "NORAD_CAT_ID": 35905, "ELEMENT_SET_NO": 999, "REV_AT_EPOCH": 88585, "BSTAR": 0.00081105566, "MEAN_MOTION_DOT": 0.00010695, "MEAN_MOTION_DDOT": 0}, "tle": {"line1": "1 35905U 93036AUU 25346.90713110  .00010695  00000+0  81106-3 0  9994", "line2": "2 35905  74.0320 210.4725 0090892 290.4597  68.6848 14.99027682885857"}}, "geometry": {"type": "Point", "coordinates": [-26.86658447239172, 70.36415981733741]}}, {"type": "Feature", "properties": {"norad_id": 35959, "name": "COSMOS 2251 DEB", "group": "cosmos-2251-debris", "lat": 72.04936045743297, "lon": 66.07860640459083, "alt_km": 765.3725476071886, "timestamp": "2025-12-14T20:40:32.169833+00:00", "meta": {"OBJECT_NAME": "COSMOS 2251 DEB", "OBJECT_ID": "1993-036AUZ", "EPOCH": "2025-12-13T07:23:22.047648", "MEAN_MOTION": 14.34136813, "ECCENTRICITY": 0.00215686, "INCLINATION": 74.0325, "RA_OF_ASC_NODE": 311.0234, "ARG_OF_PERICENTER": 31.3363, "MEAN_ANOMALY": 328.9069, "EPHEMERIS_TYPE": 0, "CLASSIFICATION_TYPE": "U", "NORAD_CAT_ID": 35959, "ELEMENT_SET_NO": 999, "REV_AT_EPOCH": 84936, "BSTAR": 0.00020716976, "MEAN_MOTION_DOT": 5.55e-06, "MEAN_MOTION_DDOT": 0}, "tle": {"line1": "1 35959U 93036AUZ 25347.30789407  .00000555  00000+0  20717-3 0  9995", "line2": "2 35959  74.0325 311.0234 0021568  31.3363 328.9069 14.34136813849360"}}, "geometry": {"type": "Point", "coordinates": [66.07860640459083, 72.04936045743297]}}]}